IRIDIUM 26              
1 24903U 97043A   25103.64107012  .00000662  00000+0  21657-3 0  9990
2 24903  86.3950 137.7414 0002142  89.5854 270.5589 14.37078926447475
IRIDIUM 22              
1 24907U 97043E   25103.58743524  .00000603  00000+0  20134-3 0  9995
2 24907  86.3960 141.2449 0002269  93.2131 266.9325 14.35901480447507
DUMMY MASS 1            
1 24925U 97048A   25104.14960245  .00000778  00000+0  83921-4 0  9991
2 24925  86.3388 164.9289 0007572  32.1774 327.9911 14.86923821495851
DUMMY MASS 2            
1 24926U 97048B   25103.62994099  .00000810  00000+0  87976-4 0  9999
2 24926  86.3392 166.7625 0008799  41.6401 318.5492 14.86676063495319
IRIDIUM 29              
1 24944U 97051A   25103.70274434  .00000769  00000+0  25595-3 0  9997
2 24944  86.4013 170.9296 0002454  97.4881 262.6595 14.36402995444014
IRIDIUM 33              
1 24946U 97051C   25104.17208681  .00000515  00000+0  17455-3 0  9997
2 24946  86.3926 169.9882 0005647 292.9363  67.1237 14.34848736443577
IRIDIUM 28              
1 24948U 97051E   25103.57866133  .00000701  00000+0  22851-3 0  9997
2 24948  86.4016 168.5369 0001868  89.3184 270.8228 14.37330599444564
IRIDIUM 36              
1 24967U 97056C   25103.62150293  .00000866  00000+0  28250-3 0  9993
2 24967  86.4033 200.0889 0002013 100.7378 259.4046 14.37544937442943
